start=new Date('2022-03-19T00:00:00.000Z').valueOf();
sats=[{"MEAN_MOTION_DOT":"0.00007731","CENTER_NAME":"EARTH","REF_FRAME":"TEME","APOAPSIS":"548.177","TIME_SYSTEM":"UTC","LAUNCH_DATE":"2020-08-18","EPHEMERIS_TYPE":"0","EPOCH":"2022-03-18T20:57:38.777472","ECCENTRICITY":"0.00014900","DECAY_DATE":null,"MEAN_MOTION_DDOT":"0.0000000000000","TLE_LINE1":"1 46144U 20057AD  22077.87336548  .00007731  00000-0  53701-3 0  9992","MEAN_ANOMALY":"291.6282","CLASSIFICATION_TYPE":"U","OBJECT_NAME":"STARLINK-1606","RA_OF_ASC_NODE":"334.0825","ARG_OF_PERICENTER":"68.4866","COUNTRY_CODE":"US","BSTAR":"0.00053701000000","SITE":"AFETR","RCS_SIZE":"LARGE","NORAD_CAT_ID":"46144","ELEMENT_SET_NO":"999","PERIOD":"95.591","MEAN_MOTION":"15.06422465","TLE_LINE2":"2 46144  53.0553 334.0825 0001490  68.4866 291.6282 15.06422465 75770","PERIAPSIS":"546.113","INCLINATION":"53.0553","OBJECT_ID":"2020-057AD","GP_ID":"199100746","FILE":"3364757","OBJECT_TYPE":"PAYLOAD","MEAN_ELEMENT_THEORY":"SGP4","REV_AT_EPOCH":"7577","SEMIMAJOR_AXIS":"6925.280"},{"BSTAR":"0.00029275000000","SITE":"AFETR","CLASSIFICATION_TYPE":"U","RA_OF_ASC_NODE":"353.8593","OBJECT_NAME":"STARLINK-1608","ARG_OF_PERICENTER":"63.1725","COUNTRY_CODE":"US","NORAD_CAT_ID":"46146","ELEMENT_SET_NO":"999","RCS_SIZE":"LARGE","MEAN_MOTION":"15.06403343","TLE_LINE2":"2 46146  53.0546 353.8593 0001953  63.1725 296.9463 15.06403343 87254","PERIAPSIS":"545.851","OBJECT_ID":"2020-057AF","INCLINATION":"53.0546","PERIOD":"95.592","SEMIMAJOR_AXIS":"6925.338","FILE":"3364757","GP_ID":"199100996","OBJECT_TYPE":"PAYLOAD","MEAN_ELEMENT_THEORY":"SGP4","REV_AT_EPOCH":"8725","CENTER_NAME":"EARTH","MEAN_MOTION_DOT":"0.00004082","LAUNCH_DATE":"2020-08-18","EPHEMERIS_TYPE":"0","ECCENTRICITY":"0.00019530","EPOCH":"2022-03-18T22:03:59.590944","REF_FRAME":"TEME","APOAPSIS":"548.556","TIME_SYSTEM":"UTC","DECAY_DATE":null,"MEAN_MOTION_DDOT":"0.0000000000000","MEAN_ANOMALY":"296.9463","TLE_LINE1":"1 46146U 20057AF  22077.91943971  .00004082  00000-0  29275-3 0  9998"},{"BSTAR":"0.00057332000000","SITE":"AFETR","RA_OF_ASC_NODE":"353.9452","CLASSIFICATION_TYPE":"U","OBJECT_NAME":"STARLINK-1611","ARG_OF_PERICENTER":"55.0150","COUNTRY_CODE":"US","ELEMENT_SET_NO":"999","NORAD_CAT_ID":"46147","RCS_SIZE":"LARGE","MEAN_MOTION":"15.06410091","TLE_LINE2":"2 46147  53.0562 353.9452 0001470  55.0150 305.0977 15.06410091 88503","OBJECT_ID":"2020-057AG","PERIAPSIS":"546.165","INCLINATION":"53.0562","PERIOD":"95.591","SEMIMAJOR_AXIS":"6925.318","FILE":"3364757","GP_ID":"199102246","OBJECT_TYPE":"PAYLOAD","REV_AT_EPOCH":"8850","MEAN_ELEMENT_THEORY":"SGP4","CENTER_NAME":"EARTH","MEAN_MOTION_DOT":"0.00008271","LAUNCH_DATE":"2020-08-18","EPHEMERIS_TYPE":"0","ECCENTRICITY":"0.00014700","EPOCH":"2022-03-18T21:37:25.513536","REF_FRAME":"TEME","APOAPSIS":"548.201","TIME_SYSTEM":"UTC","DECAY_DATE":null,"MEAN_MOTION_DDOT":"0.0000000000000","TLE_LINE1":"1 46147U 20057AG  22077.90098974  .00008271  00000-0  57332-3 0  9991","MEAN_ANOMALY":"305.0977"},{"GP_ID":"199101985","FILE":"3364757","OBJECT_TYPE":"PAYLOAD","MEAN_ELEMENT_THEORY":"SGP4","REV_AT_EPOCH":"8752","SEMIMAJOR_AXIS":"6925.288","PERIOD":"95.591","MEAN_MOTION":"15.06419763","TLE_LINE2":"2 46148  53.0556 333.9203 0001409  70.5735 289.5406 15.06419763 87521","PERIAPSIS":"546.177","OBJECT_ID":"2020-057AH","INCLINATION":"53.0556","RCS_SIZE":"LARGE","NORAD_CAT_ID":"46148","ELEMENT_SET_NO":"999","CLASSIFICATION_TYPE":"U","RA_OF_ASC_NODE":"333.9203","OBJECT_NAME":"STARLINK-1616","ARG_OF_PERICENTER":"70.5735","COUNTRY_CODE":"US","BSTAR":"0.00036495000000","SITE":"AFETR","MEAN_MOTION_DDOT":"0.0000000000000","MEAN_ANOMALY":"289.5406","TLE_LINE1":"1 46148U 20057AH  22077.90653991  .00005161  00000-0  36495-3 0  9990","DECAY_DATE":null,"REF_FRAME":"TEME","APOAPSIS":"548.129","TIME_SYSTEM":"UTC","LAUNCH_DATE":"2020-08-18","EPHEMERIS_TYPE":"0","EPOCH":"2022-03-18T21:45:25.048224","ECCENTRICITY":"0.00014090","MEAN_MOTION_DOT":"0.00005161","CENTER_NAME":"EARTH"},{"MEAN_ELEMENT_THEORY":"SGP4","REV_AT_EPOCH":"8880","OBJECT_TYPE":"PAYLOAD","FILE":"3364757","GP_ID":"199101246","SEMIMAJOR_AXIS":"6925.339","PERIOD":"95.592","PERIAPSIS":"546.032","INCLINATION":"53.0553","OBJECT_ID":"2020-057AJ","TLE_LINE2":"2 46149  53.0553 333.8678 0001693  70.9156 289.2016 15.06403074 88804","MEAN_MOTION":"15.06403074","RCS_SIZE":"LARGE","NORAD_CAT_ID":"46149","ELEMENT_SET_NO":"999","COUNTRY_CODE":"US","ARG_OF_PERICENTER":"70.9156","CLASSIFICATION_TYPE":"U","RA_OF_ASC_NODE":"333.8678","OBJECT_NAME":"STARLINK-1620","SITE":"AFETR","BSTAR":"0.00031471000000","MEAN_ANOMALY":"289.2016","TLE_LINE1":"1 46149U 20057AJ  22077.92127956  .00004409  00000-0  31471-3 0  9993","MEAN_MOTION_DDOT":"0.0000000000000","DECAY_DATE":null,"TIME_SYSTEM":"UTC","APOAPSIS":"548.377","REF_FRAME":"TEME","ECCENTRICITY":"0.00016930","EPOCH":"2022-03-18T22:06:38.553984","EPHEMERIS_TYPE":"0","LAUNCH_DATE":"2020-08-18","MEAN_MOTION_DOT":"0.00004409","CENTER_NAME":"EARTH"},{"COUNTRY_CODE":"US","ARG_OF_PERICENTER":"61.1756","CLASSIFICATION_TYPE":"U","RA_OF_ASC_NODE":"353.8783","OBJECT_NAME":"STARLINK-1629","SITE":"AFETR","BSTAR":"0.00081474000000","RCS_SIZE":"LARGE","ELEMENT_SET_NO":"999","NORAD_CAT_ID":"46150","PERIOD":"95.592","OBJECT_ID":"2020-057AK","PERIAPSIS":"546.091","INCLINATION":"53.0557","TLE_LINE2":"2 46150  53.0557 353.8783 0001580  61.1756 298.9392 15.06409159 87254","MEAN_MOTION":"15.06409159","MEAN_ELEMENT_THEORY":"SGP4","REV_AT_EPOCH":"8725","OBJECT_TYPE":"PAYLOAD","GP_ID":"199101496","FILE":"3364757","SEMIMAJOR_AXIS":"6925.320","MEAN_MOTION_DOT":"0.00011878","CENTER_NAME":"EARTH","TIME_SYSTEM":"UTC","APOAPSIS":"548.280","REF_FRAME":"TEME","ECCENTRICITY":"0.00015800","EPOCH":"2022-03-18T21:58:42.413952","EPHEMERIS_TYPE":"0","LAUNCH_DATE":"2020-08-18","DECAY_DATE":null,"MEAN_ANOMALY":"298.9392","TLE_LINE1":"1 46150U 20057AK  22077.91576868  .00011878  00000-0  81474-3 0  9990","MEAN_MOTION_DDOT":"0.0000000000000"},{"REF_FRAME":"TEME","APOAPSIS":"548.276","TIME_SYSTEM":"UTC","LAUNCH_DATE":"2020-08-18","EPHEMERIS_TYPE":"0","EPOCH":"2022-03-18T21:24:10.729440","ECCENTRICITY":"0.00015660","MEAN_MOTION_DOT":"0.00005477","CENTER_NAME":"EARTH","MEAN_MOTION_DDOT":"0.0000000000000","TLE_LINE1":"1 46151U 20057AL  22077.89179085  .00005477  00000-0  38624-3 0  9995","MEAN_ANOMALY":"295.7996","DECAY_DATE":null,"RCS_SIZE":"LARGE","NORAD_CAT_ID":"46151","ELEMENT_SET_NO":"999","CLASSIFICATION_TYPE":"U","RA_OF_ASC_NODE":"333.9908","OBJECT_NAME":"STARLINK-1631","ARG_OF_PERICENTER":"64.3154","COUNTRY_CODE":"US","BSTAR":"0.00038624000000","SITE":"AFETR","GP_ID":"199101747","FILE":"3364757","OBJECT_TYPE":"PAYLOAD","REV_AT_EPOCH":"8752","MEAN_ELEMENT_THEORY":"SGP4","SEMIMAJOR_AXIS":"6925.326","PERIOD":"95.592","MEAN_MOTION":"15.06407254","TLE_LINE2":"2 46151  53.0545 333.9908 0001566  64.3154 295.7996 15.06407254 87520","OBJECT_ID":"2020-057AL","PERIAPSIS":"546.107","INCLINATION":"53.0545"},{"MEAN_MOTION_DDOT":"0.0000000000000","TLE_LINE1":"1 46152U 20057AM  22077.87522552  .00010896  00000-0  74895-3 0  9996","MEAN_ANOMALY":"294.8389","DECAY_DATE":null,"REF_FRAME":"TEME","APOAPSIS":"548.254","TIME_SYSTEM":"UTC","LAUNCH_DATE":"2020-08-18","EPHEMERIS_TYPE":"0","EPOCH":"2022-03-18T21:00:19.484928","ECCENTRICITY":"0.00015650","MEAN_MOTION_DOT":"0.00010896","CENTER_NAME":"EARTH","FILE":"3364757","GP_ID":"199102485","OBJECT_TYPE":"PAYLOAD","REV_AT_EPOCH":"8724","MEAN_ELEMENT_THEORY":"SGP4","SEMIMAJOR_AXIS":"6925.305","PERIOD":"95.591","MEAN_MOTION":"15.06414211","TLE_LINE2":"2 46152  53.0557 354.0707 0001565  65.2763 294.8389 15.06414211 87246","PERIAPSIS":"546.086","INCLINATION":"53.0557","OBJECT_ID":"2020-057AM","RCS_SIZE":"LARGE","NORAD_CAT_ID":"46152","ELEMENT_SET_NO":"999","RA_OF_ASC_NODE":"354.0707","CLASSIFICATION_TYPE":"U","OBJECT_NAME":"STARLINK-1634","ARG_OF_PERICENTER":"65.2763","COUNTRY_CODE":"US","BSTAR":"0.00074895000000","SITE":"AFETR"},{"MEAN_MOTION_DDOT":"0.0000000000000","TLE_LINE1":"1 46153U 20057AN  22077.91023306  .00015250  00000-0  10397-2 0  9990","MEAN_ANOMALY":"294.3104","DECAY_DATE":null,"LAUNCH_DATE":"2020-08-18","EPHEMERIS_TYPE":"0","EPOCH":"2022-03-18T21:50:44.136384","ECCENTRICITY":"0.00017730","APOAPSIS":"548.358","REF_FRAME":"TEME","TIME_SYSTEM":"UTC","CENTER_NAME":"EARTH","MEAN_MOTION_DOT":"0.00015250","SEMIMAJOR_AXIS":"6925.265","GP_ID":"199100747","FILE":"3364757","OBJECT_TYPE":"PAYLOAD","REV_AT_EPOCH":"8752","MEAN_ELEMENT_THEORY":"SGP4","MEAN_MOTION":"15.06427270","TLE_LINE2":"2 46153  53.0553 333.9206 0001773  65.8070 294.3104 15.06427270 87521","PERIAPSIS":"545.902","OBJECT_ID":"2020-057AN","INCLINATION":"53.0553","PERIOD":"95.590","NORAD_CAT_ID":"46153","ELEMENT_SET_NO":"999","RCS_SIZE":"LARGE","BSTAR":"0.00103970000000","SITE":"AFETR","OBJECT_NAME":"STARLINK-1636","CLASSIFICATION_TYPE":"U","RA_OF_ASC_NODE":"333.9206","ARG_OF_PERICENTER":"65.8070","COUNTRY_CODE":"US"},{"ELEMENT_SET_NO":"999","NORAD_CAT_ID":"46154","RCS_SIZE":"LARGE","SITE":"AFETR","BSTAR":"0.00035168000000","COUNTRY_CODE":"US","ARG_OF_PERICENTER":"70.2379","RA_OF_ASC_NODE":"343.8747","CLASSIFICATION_TYPE":"U","OBJECT_NAME":"STARLINK-1642","SEMIMAJOR_AXIS":"6925.324","REV_AT_EPOCH":"8739","MEAN_ELEMENT_THEORY":"SGP4","OBJECT_TYPE":"PAYLOAD","FILE":"3364757","GP_ID":"199100997","PERIAPSIS":"545.955","OBJECT_ID":"2020-057AP","INCLINATION":"53.0556","TLE_LINE2":"2 46154  53.0556 343.8747 0001781  70.2379 289.8802 15.06408077 87399","MEAN_MOTION":"15.06408077","PERIOD":"95.592","EPOCH":"2022-03-18T22:05:18.583008","ECCENTRICITY":"0.00017810","EPHEMERIS_TYPE":"0","LAUNCH_DATE":"2020-08-18","TIME_SYSTEM":"UTC","REF_FRAME":"TEME","APOAPSIS":"548.422","CENTER_NAME":"EARTH","MEAN_MOTION_DOT":"0.00004962","MEAN_ANOMALY":"289.8802","TLE_LINE1":"1 46154U 20057AP  22077.92035397  .00004962  00000-0  35168-3 0  9997","MEAN_MOTION_DDOT":"0.0000000000000","DECAY_DATE":null}];
